STARLINK-5124           
1 54011U 22125AZ  23150.10955548 -.00001040  00000+0 -47270-4 0  9991
2 54011  53.2178  78.8962 0001298  71.2985 288.8148 15.08835228 36438
STARLINK-5126           
1 54012U 22125BA  23150.08375943 -.00001199  00000+0 -57301-4 0  9995
2 54012  53.2173  78.7397 0001089  78.8808 281.2307 15.08834296 36438
STARLINK-5098           
1 54013U 22125BB  23150.22360490 -.00000608  00000+0 -20128-4 0  9994
2 54013  53.2177  78.1908 0001199  99.1219 260.9909 15.08837857 36459
STARLINK-5116           
1 54014U 22125BC  23150.21992451 -.00001190  00000+0 -56705-4 0  9999
2 54014  53.2183  78.1658 0001253  87.0590 273.0545 15.08834754 36452
STARLINK-5055           
1 54015U 22125BD  23150.07638264 -.00000425  00000+0 -86396-5 0  9993
2 54015  53.2176  78.6911 0001135  95.1194 264.9927 15.08837960 36434
CENTISPACE-1 S5         
1 54020U 22126A   23150.55097095  .00000893  00000+0  23018-3 0  9991
2 54020  54.9998 333.4155 0014970  87.6903 272.5803 14.58433920 34299
CENTISPACE-1 S6         
1 54021U 22126B   23150.55328235  .00000866  00000+0  22413-3 0  9993
2 54021  54.9999 333.4283 0017835  94.3770 265.9260 14.58461770 34289
OTB-3-GAZELLE           
1 54023U 22127A   23150.46066781  .00000129  00000+0  52455-4 0  9993
2 54023  98.3230 148.8140 0012439 313.6700  46.3458 14.41841545 33829
GALAXY 33 (G-33)        
1 54026U 22128A   23150.50607882  .00000097  00000+0  00000+0 0  9993
2 54026   0.0112 328.6879 0001829  98.5641 229.7014  1.00272150  2587
GALAXY 34 (G-34)        
1 54027U 22128B   23149.67251448  .00000075  00000+0  00000+0 0  9999
2 54027   0.0160 330.0881 0002286 115.6477 274.3004  1.00271689  2746
ASO-S                   
1 54029U 22129A   23150.53917101  .00000250  00000+0  74321-4 0  9991
2 54029  98.2668 157.0402 0013339 271.9802  87.9865 14.51031041 33861
COSMOS 2559 [GLONASS-K] 
1 54031U 22130A   23150.02489665 -.00000042  00000+0  00000+0 0  9997
2 54031  64.7529 353.5950 0004711 214.3394 145.6774  2.13101296  4943
ANGOSAT 2               
1 54033U 22131A   23150.51766066  .00000153  00000+0  00000+0 0  9999
2 54033   0.0073 356.9210 0000569 149.9060 310.2797  1.00270991  2305
HJ-2E                   
1 54035U 22132A   23150.60424801  .00007894  00000+0  36034-3 0  9999
2 54035  97.3895 158.0755 0005656 292.6801  67.3836 15.20856773 34971
YAOGAN-36 02A           
1 54042U 22133A   23150.58885212  .00000370  00000+0  15742-4 0  9998
2 54042  35.0006 291.5372 0017445 200.3513 159.6508 15.25320574 34785
YAOGAN-36 02B           
1 54043U 22133B   23149.76195155  .00011471  00000+0  44624-3 0  9991
2 54043  35.0017 296.7270 0008616 211.0728 289.5914 15.25196401 34659
YAOGAN-36 02C           
1 54045U 22133D   23150.58435788  .00015915  00000+0  61665-3 0  9995
2 54045  34.9984 291.4819 0005215 193.9841 166.0730 15.25301188 34788
