[{"OBJECT_NAME":"STARLINK-5124","OBJECT_ID":"2022-125AZ","EPOCH":"2023-05-30T02:37:45.593472","MEAN_MOTION":15.08835228,"ECCENTRICITY":0.0001298,"INCLINATION":53.2178,"RA_OF_ASC_NODE":78.8962,"ARG_OF_PERICENTER":71.2985,"MEAN_ANOMALY":288.8148,"EPHEMERIS_TYPE":0,"CLASSIFICATION_TYPE":"U","NORAD_CAT_ID":54011,"ELEMENT_SET_NO":999,"REV_AT_EPOCH":3643,"BSTAR":-4.727e-5,"MEAN_MOTION_DOT":-1.04e-5,"MEAN_MOTION_DDOT":0},{"OBJECT_NAME":"STARLINK-5126","OBJECT_ID":"2022-125BA","EPOCH":"2023-05-30T02:00:36.814752","MEAN_MOTION":15.08834296,"ECCENTRICITY":0.0001089,"INCLINATION":53.2173,"RA_OF_ASC_NODE":78.7397,"ARG_OF_PERICENTER":78.8808,"MEAN_ANOMALY":281.2307,"EPHEMERIS_TYPE":0,"CLASSIFICATION_TYPE":"U","NORAD_CAT_ID":54012,"ELEMENT_SET_NO":999,"REV_AT_EPOCH":3643,"BSTAR":-5.7301e-5,"MEAN_MOTION_DOT":-1.199e-5,"MEAN_MOTION_DDOT":0},{"OBJECT_NAME":"STARLINK-5098","OBJECT_ID":"2022-125BB","EPOCH":"2023-05-30T05:21:59.463360","MEAN_MOTION":15.08837857,"ECCENTRICITY":0.0001199,"INCLINATION":53.2177,"RA_OF_ASC_NODE":78.1908,"ARG_OF_PERICENTER":99.1219,"MEAN_ANOMALY":260.9909,"EPHEMERIS_TYPE":0,"CLASSIFICATION_TYPE":"U","NORAD_CAT_ID":54013,"ELEMENT_SET_NO":999,"REV_AT_EPOCH":3645,"BSTAR":-2.0128e-5,"MEAN_MOTION_DOT":-6.08e-6,"MEAN_MOTION_DDOT":0},{"OBJECT_NAME":"STARLINK-5116","OBJECT_ID":"2022-125BC","EPOCH":"2023-05-30T05:16:41.477664","MEAN_MOTION":15.08834754,"ECCENTRICITY":0.0001253,"INCLINATION":53.2183,"RA_OF_ASC_NODE":78.1658,"ARG_OF_PERICENTER":87.059,"MEAN_ANOMALY":273.0545,"EPHEMERIS_TYPE":0,"CLASSIFICATION_TYPE":"U","NORAD_CAT_ID":54014,"ELEMENT_SET_NO":999,"REV_AT_EPOCH":3645,"BSTAR":-5.6705e-5,"MEAN_MOTION_DOT":-1.19e-5,"MEAN_MOTION_DDOT":0},{"OBJECT_NAME":"STARLINK-5055","OBJECT_ID":"2022-125BD","EPOCH":"2023-05-30T01:49:59.460096","MEAN_MOTION":15.0883796,"ECCENTRICITY":0.0001135,"INCLINATION":53.2176,"RA_OF_ASC_NODE":78.6911,"ARG_OF_PERICENTER":95.1194,"MEAN_ANOMALY":264.9927,"EPHEMERIS_TYPE":0,"CLASSIFICATION_TYPE":"U","NORAD_CAT_ID":54015,"ELEMENT_SET_NO":999,"REV_AT_EPOCH":3643,"BSTAR":-8.6396e-6,"MEAN_MOTION_DOT":-4.25e-6,"MEAN_MOTION_DDOT":0},{"OBJECT_NAME":"CENTISPACE-1 S5","OBJECT_ID":"2022-126A","EPOCH":"2023-05-30T13:13:23.890080","MEAN_MOTION":14.5843392,"ECCENTRICITY":0.001497,"INCLINATION":54.9998,"RA_OF_ASC_NODE":333.4155,"ARG_OF_PERICENTER":87.6903,"MEAN_ANOMALY":272.5803,"EPHEMERIS_TYPE":0,"CLASSIFICATION_TYPE":"U","NORAD_CAT_ID":54020,"ELEMENT_SET_NO":999,"REV_AT_EPOCH":3429,"BSTAR":0.00023018,"MEAN_MOTION_DOT":8.93e-6,"MEAN_MOTION_DDOT":0},{"OBJECT_NAME":"CENTISPACE-1 S6","OBJECT_ID":"2022-126B","EPOCH":"2023-05-30T13:16:43.595040","MEAN_MOTION":14.5846177,"ECCENTRICITY":0.0017835,"INCLINATION":54.9999,"RA_OF_ASC_NODE":333.4283,"ARG_OF_PERICENTER":94.377,"MEAN_ANOMALY":265.926,"EPHEMERIS_TYPE":0,"CLASSIFICATION_TYPE":"U","NORAD_CAT_ID":54021,"ELEMENT_SET_NO":999,"REV_AT_EPOCH":3428,"BSTAR":0.00022413,"MEAN_MOTION_DOT":8.66e-6,"MEAN_MOTION_DDOT":0},{"OBJECT_NAME":"OTB-3-GAZELLE","OBJECT_ID":"2022-127A","EPOCH":"2023-05-30T11:03:21.698784","MEAN_MOTION":14.41841545,"ECCENTRICITY":0.0012439,"INCLINATION":98.323,"RA_OF_ASC_NODE":148.814,"ARG_OF_PERICENTER":313.67,"MEAN_ANOMALY":46.3458,"EPHEMERIS_TYPE":0,"CLASSIFICATION_TYPE":"U","NORAD_CAT_ID":54023,"ELEMENT_SET_NO":999,"REV_AT_EPOCH":3382,"BSTAR":5.2455e-5,"MEAN_MOTION_DOT":1.29e-6,"MEAN_MOTION_DDOT":0},{"OBJECT_NAME":"GALAXY 33 (G-33)","OBJECT_ID":"2022-128A","EPOCH":"2023-05-30T12:08:45.210048","MEAN_MOTION":1.0027215,"ECCENTRICITY":0.0001829,"INCLINATION":0.0112,"RA_OF_ASC_NODE":328.6879,"ARG_OF_PERICENTER":98.5641,"MEAN_ANOMALY":229.7014,"EPHEMERIS_TYPE":0,"CLASSIFICATION_TYPE":"U","NORAD_CAT_ID":54026,"ELEMENT_SET_NO":999,"REV_AT_EPOCH":258,"BSTAR":0,"MEAN_MOTION_DOT":9.7e-7,"MEAN_MOTION_DDOT":0},{"OBJECT_NAME":"GALAXY 34 (G-34)","OBJECT_ID":"2022-128B","EPOCH":"2023-05-29T16:08:25.251072","MEAN_MOTION":1.00271689,"ECCENTRICITY":0.0002286,"INCLINATION":0.016,"RA_OF_ASC_NODE":330.0881,"ARG_OF_PERICENTER":115.6477,"MEAN_ANOMALY":274.3004,"EPHEMERIS_TYPE":0,"CLASSIFICATION_TYPE":"U","NORAD_CAT_ID":54027,"ELEMENT_SET_NO":999,"REV_AT_EPOCH":274,"BSTAR":0,"MEAN_MOTION_DOT":7.5e-7,"MEAN_MOTION_DDOT":0},{"OBJECT_NAME":"ASO-S","OBJECT_ID":"2022-129A","EPOCH":"2023-05-30T12:56:24.375264","MEAN_MOTION":14.51031041,"ECCENTRICITY":0.0013339,"INCLINATION":98.2668,"RA_OF_ASC_NODE":157.0402,"ARG_OF_PERICENTER":271.9802,"MEAN_ANOMALY":87.9865,"EPHEMERIS_TYPE":0,"CLASSIFICATION_TYPE":"U","NORAD_CAT_ID":54029,"ELEMENT_SET_NO":999,"REV_AT_EPOCH":3386,"BSTAR":7.4321e-5,"MEAN_MOTION_DOT":2.5e-6,"MEAN_MOTION_DDOT":0},{"OBJECT_NAME":"COSMOS 2559 [GLONASS-K]","OBJECT_ID":"2022-130A","EPOCH":"2023-05-30T00:35:51.070560","MEAN_MOTION":2.13101296,"ECCENTRICITY":0.0004711,"INCLINATION":64.7529,"RA_OF_ASC_NODE":353.595,"ARG_OF_PERICENTER":214.3394,"MEAN_ANOMALY":145.6774,"EPHEMERIS_TYPE":0,"CLASSIFICATION_TYPE":"U","NORAD_CAT_ID":54031,"ELEMENT_SET_NO":999,"REV_AT_EPOCH":494,"BSTAR":0,"MEAN_MOTION_DOT":-4.2e-7,"MEAN_MOTION_DDOT":0},{"OBJECT_NAME":"ANGOSAT 2","OBJECT_ID":"2022-131A","EPOCH":"2023-05-30T12:25:25.881024","MEAN_MOTION":1.00270991,"ECCENTRICITY":5.69e-5,"INCLINATION":0.0073,"RA_OF_ASC_NODE":356.921,"ARG_OF_PERICENTER":149.906,"MEAN_ANOMALY":310.2797,"EPHEMERIS_TYPE":0,"CLASSIFICATION_TYPE":"U","NORAD_CAT_ID":54033,"ELEMENT_SET_NO":999,"REV_AT_EPOCH":230,"BSTAR":0,"MEAN_MOTION_DOT":1.53e-6,"MEAN_MOTION_DDOT":0},{"OBJECT_NAME":"HJ-2E","OBJECT_ID":"2022-132A","EPOCH":"2023-05-30T14:30:07.028064","MEAN_MOTION":15.20856773,"ECCENTRICITY":0.0005656,"INCLINATION":97.3895,"RA_OF_ASC_NODE":158.0755,"ARG_OF_PERICENTER":292.6801,"MEAN_ANOMALY":67.3836,"EPHEMERIS_TYPE":0,"CLASSIFICATION_TYPE":"U","NORAD_CAT_ID":54035,"ELEMENT_SET_NO":999,"REV_AT_EPOCH":3497,"BSTAR":0.00036034,"MEAN_MOTION_DOT":7.894e-5,"MEAN_MOTION_DDOT":0},{"OBJECT_NAME":"YAOGAN-36 02A","OBJECT_ID":"2022-133A","EPOCH":"2023-05-30T14:07:56.823168","MEAN_MOTION":15.25320574,"ECCENTRICITY":0.0017445,"INCLINATION":35.0006,"RA_OF_ASC_NODE":291.5372,"ARG_OF_PERICENTER":200.3513,"MEAN_ANOMALY":159.6508,"EPHEMERIS_TYPE":0,"CLASSIFICATION_TYPE":"U","NORAD_CAT_ID":54042,"ELEMENT_SET_NO":999,"REV_AT_EPOCH":3478,"BSTAR":1.5742e-5,"MEAN_MOTION_DOT":3.7e-6,"MEAN_MOTION_DDOT":0},{"OBJECT_NAME":"YAOGAN-36 02B","OBJECT_ID":"2022-133B","EPOCH":"2023-05-29T18:17:12.613920","MEAN_MOTION":15.25196401,"ECCENTRICITY":0.0008616,"INCLINATION":35.0017,"RA_OF_ASC_NODE":296.727,"ARG_OF_PERICENTER":211.0728,"MEAN_ANOMALY":289.5914,"EPHEMERIS_TYPE":0,"CLASSIFICATION_TYPE":"U","NORAD_CAT_ID":54043,"ELEMENT_SET_NO":999,"REV_AT_EPOCH":3465,"BSTAR":0.00044624,"MEAN_MOTION_DOT":0.00011471,"MEAN_MOTION_DDOT":0},{"OBJECT_NAME":"YAOGAN-36 02C","OBJECT_ID":"2022-133D","EPOCH":"2023-05-30T14:01:28.520832","MEAN_MOTION":15.25301188,"ECCENTRICITY":0.0005215,"INCLINATION":34.9984,"RA_OF_ASC_NODE":291.4819,"ARG_OF_PERICENTER":193.9841,"MEAN_ANOMALY":166.073,"EPHEMERIS_TYPE":0,"CLASSIFICATION_TYPE":"U","NORAD_CAT_ID":54045,"ELEMENT_SET_NO":999,"REV_AT_EPOCH":3478,"BSTAR":0.00061665,"MEAN_MOTION_DOT":0.00015915,"MEAN_MOTION_DDOT":0}]
